{
    "links": {
        "self": "http://www.neowsapp.com/rest/v1/neo/3648741?api_key=iIulBulltgU6a56xZRHN4H3l9WmuAYTsLGpBGhQ2"
    },
    "id": "3648741",
    "neo_reference_id": "3648741",
    "name": "(2013 TF)",
    "designation": "2013 TF",
    "nasa_jpl_url": "http://ssd.jpl.nasa.gov/sbdb.cgi?sstr=3648741",
    "absolute_magnitude_h": 22.3,
    "estimated_diameter": {
        "kilometers": {
            "estimated_diameter_min": 0.0921626549,
            "estimated_diameter_max": 0.2060819612
        },
        "meters": {
            "estimated_diameter_min": 92.1626548503,
            "estimated_diameter_max": 206.0819612321
        },
        "miles": {
            "estimated_diameter_min": 0.057267201,
            "estimated_diameter_max": 0.1280533543
        },
        "feet": {
            "estimated_diameter_min": 302.370924539,
            "estimated_diameter_max": 676.1219416887
        }
    },
    "is_potentially_hazardous_asteroid": false,
    "close_approach_data": [
        {
            "close_approach_date": "2013-09-18",
            "close_approach_date_full": "2013-Sep-18 17:48",
            "epoch_date_close_approach": 1379526480000,
            "relative_velocity": {
                "kilometers_per_second": "21.5388627495",
                "kilometers_per_hour": "77539.905898146",
                "miles_per_hour": "48180.282084323"
            },
            "miss_distance": {
                "astronomical": "0.1196493295",
                "lunar": "46.5435891755",
                "kilometers": "17899284.840128165",
                "miles": "11122099.861032077"
            },
            "orbiting_body": "Earth"
        }
    ],
    "orbital_data": {
        "orbit_id": "10",
        "orbit_determination_date": "2017-04-06 08:44:27",
        "first_observation_date": "2013-10-01",
        "last_observation_date": "2013-10-10",
        "data_arc_in_days": 9,
        "observations_used": 40,
        "orbit_uncertainty": "8",
        "minimum_orbit_intersection": ".108272",
        "jupiter_tisserand_invariant": "2.778",
        "epoch_osculation": "2456569.5",
        "eccentricity": ".7371639657734486",
        "semi_major_axis": "2.842223898861686",
        "inclination": "18.52638688883218",
        "ascending_node_longitude": "193.4378638692357",
        "orbital_period": "1750.192656205938",
        "perihelion_distance": ".7470388579607325",
        "perihelion_argument": "88.98500896053399",
        "aphelion_distance": "4.937408939762639",
        "perihelion_time": "2456508.581624956829",
        "mean_anomaly": "12.53040054635052",
        "mean_motion": ".2056916412735994",
        "equinox": "J2000",
        "orbit_class": {
            "orbit_class_type": "APO",
            "orbit_class_description": "Near-Earth asteroid orbits which cross the Earth’s orbit similar to that of 1862 Apollo",
            "orbit_class_range": "a (semi-major axis) > 1.0 AU; q (perihelion) < 1.017 AU"
        }
    },
    "is_sentry_object": false
}